{
  "type": "FeatureCollection",
  "features": [
    {
      "type": "Feature",
      "properties": {
        "norad_id": 34036,
        "name": "COSMOS 2251 DEB",
        "group": "cosmos-2251-debris",
        "lat": 61.54708699039448,
        "lon": 167.64168347544273,
        "alt_km": 575.9634221370379,
        "timestamp": "2025-12-19T10:50:01.595203+00:00",
        "meta_object_name": "COSMOS 2251 DEB",
        "meta_object_id": "1993-036HX",
        "meta_epoch": "2025-12-18T13:39:59.580576",
        "meta_mean_motion": 14.95421329,
        "meta_eccentricity": 0.00110737,
        "meta_inclination": 74.0196,
        "meta_ra_of_asc_node": 137.4958,
        "meta_arg_of_pericenter": 168.8965,
        "meta_mean_anomaly": 191.2466,
        "meta_ephemeris_type": 0,
        "meta_classification_type": "U",
        "meta_norad_cat_id": 34036,
        "meta_element_set_no": 999,
        "meta_rev_at_epoch": 88657,
        "meta_bstar": 0.0031797854,
        "meta_mean_motion_dot": 0.00035336,
        "meta_mean_motion_ddot": 0,
        "tle_line1": "1 34036U 93036HX  25352.56943959  .00035336  00000+0  31798-2 0  9993",
        "tle_line2": "2 34036  74.0196 137.4958 0011073 168.8965 191.2466 14.95421329886570"
      },
      "geometry": {
        "type": "Point",
        "coordinates": [
          167.64168347544273,
          61.54708699039448
        ]
      }
    },
    {
      "type": "Feature",
      "properties": {
        "norad_id": 34037,
        "name": "COSMOS 2251 DEB",
        "group": "cosmos-2251-debris",
        "lat": 68.90264144830886,
        "lon": 170.32654811217512,
        "alt_km": 733.7519793413494,
        "timestamp": "2025-12-19T10:50:01.595214+00:00",
        "meta_object_name": "COSMOS 2251 DEB",
        "meta_object_id": "1993-036HY",
        "meta_epoch": "2025-12-18T14:16:20.695008",
        "meta_mean_motion": 14.34679641,
        "meta_eccentricity": 0.00518383,
        "meta_inclination": 74.0513,
        "meta_ra_of_asc_node": 39.7266,
        "meta_arg_of_pericenter": 87.9128,
        "meta_mean_anomaly": 272.7959,
        "meta_ephemeris_type": 0,
        "meta_classification_type": "U",
        "meta_norad_cat_id": 34037,
        "meta_element_set_no": 999,
        "meta_rev_at_epoch": 87801,
        "meta_bstar": 0.00033094134,
        "meta_mean_motion_dot": 9.25e-06,
        "meta_mean_motion_ddot": 0,
        "tle_line1": "1 34037U 93036HY  25352.59468397  .00000925  00000+0  33094-3 0  9993",
        "tle_line2": "2 34037  74.0513  39.7266 0051838  87.9128 272.7959 14.34679641878012"
      },
      "geometry": {
        "type": "Point",
        "coordinates": [
          170.32654811217512,
          68.90264144830886
        ]
      }
    },
    {
      "type": "Feature",
      "properties": {
        "norad_id": 34040,
        "name": "COSMOS 2251 DEB",
        "group": "cosmos-2251-debris",
        "lat": -12.540959866236028,
        "lon": -121.55655194908054,
        "alt_km": 1261.271597727824,
        "timestamp": "2025-12-19T10:50:01.595224+00:00",
        "meta_object_name": "COSMOS 2251 DEB",
        "meta_object_id": "1993-036JB",
        "meta_epoch": "2025-12-18T14:35:39.891840",
        "meta_mean_motion": 13.68382997,
        "meta_eccentricity": 0.03432162,
        "meta_inclination": 73.9558,
        "meta_ra_of_asc_node": 56.1664,
        "meta_arg_of_pericenter": 8.341,
        "meta_mean_anomaly": 352.321,
        "meta_ephemeris_type": 0,
        "meta_classification_type": "U",
        "meta_norad_cat_id": 34040,
        "meta_element_set_no": 999,
        "meta_rev_at_epoch": 83680,
        "meta_bstar": 0.00048606868,
        "meta_mean_motion_dot": 6.04e-06,
        "meta_mean_motion_ddot": 0,
        "tle_line1": "1 34040U 93036JB  25352.60810060  .00000604  00000+0  48607-3 0  9997",
        "tle_line2": "2 34040  73.9558  56.1664 0343216   8.3410 352.3210 13.68382997836800"
      },
      "geometry": {
        "type": "Point",
        "coordinates": [
          -121.55655194908054,
          -12.540959866236028
        ]
      }
    },
    {
      "type": "Feature",
      "properties": {
        "norad_id": 34045,
        "name": "COSMOS 2251 DEB",
        "group": "cosmos-2251-debris",
        "lat": 43.59213863240304,
        "lon": 102.74067259493258,
        "alt_km": 781.6224299977039,
        "timestamp": "2025-12-19T10:50:01.595234+00:00",
        "meta_object_name": "COSMOS 2251 DEB",
        "meta_object_id": "1993-036JG",
        "meta_epoch": "2025-12-18T22:46:49.245312",
        "meta_mean_motion": 14.34072231,
        "meta_eccentricity": 0.00259207,
        "meta_inclination": 74.0394,
        "meta_ra_of_asc_node": 299.4697,
        "meta_arg_of_pericenter": 21.2239,
        "meta_mean_anomaly": 40.8234,
        "meta_ephemeris_type": 0,
        "meta_classification_type": "U",
        "meta_norad_cat_id": 34045,
        "meta_element_set_no": 999,
        "meta_rev_at_epoch": 88122,
        "meta_bstar": 7.2251472e-05,
        "meta_mean_motion_dot": 1.77e-06,
        "meta_mean_motion_ddot": 0,
        "tle_line1": "1 34045U 93036JG  25352.94918108  .00000177  00000+0  72251-4 0  9999",
        "tle_line2": "2 34045  74.0394 299.4697 0025920  21.2239  40.8234 14.34072231881227"
      },
      "geometry": {
        "type": "Point",
        "coordinates": [
          102.74067259493258,
          43.59213863240304
        ]
      }
    },
    {
      "type": "Feature",
      "properties": {
        "norad_id": 34046,
        "name": "COSMOS 2251 DEB",
        "group": "cosmos-2251-debris",
        "lat": 58.459479890934894,
        "lon": 25.73554932258399,
        "alt_km": 680.3288986137941,
        "timestamp": "2025-12-19T10:50:01.595244+00:00",
        "meta_object_name": "COSMOS 2251 DEB",
        "meta_object_id": "1993-036JH",
        "meta_epoch": "2025-12-18T01:38:36.652128",
        "meta_mean_motion": 14.46515039,
        "meta_eccentricity": 0.00744287,
        "meta_inclination": 74.0391,
        "meta_ra_of_asc_node": 0.5232,
        "meta_arg_of_pericenter": 82.3438,
        "meta_mean_anomaly": 341.7575,
        "meta_ephemeris_type": 0,
        "meta_classification_type": "U",
        "meta_norad_cat_id": 34046,
        "meta_element_set_no": 999,
        "meta_rev_at_epoch": 87903,
        "meta_bstar": 0.00091063799,
        "meta_mean_motion_dot": 3.368e-05,
        "meta_mean_motion_ddot": 0,
        "tle_line1": "1 34046U 93036JH  25352.06847977  .00003368  00000+0  91064-3 0  9995",
        "tle_line2": "2 34046  74.0391   0.5232 0074428  82.3438 341.7575 14.46515039879035"
      },
      "geometry": {
        "type": "Point",
        "coordinates": [
          25.73554932258399,
          58.459479890934894
        ]
      }
    },
    {
      "type": "Feature",
      "properties": {
        "norad_id": 34050,
        "name": "COSMOS 2251 DEB",
        "group": "cosmos-2251-debris",
        "lat": 12.767864295763355,
        "lon": 174.83347622992608,
        "alt_km": 946.3346017579206,
        "timestamp": "2025-12-19T10:50:01.595255+00:00",
        "meta_object_name": "COSMOS 2251 DEB",
        "meta_object_id": "1993-036JM",
        "meta_epoch": "2025-12-18T17:24:58.136832",
        "meta_mean_motion": 13.96193763,
        "meta_eccentricity": 0.021463,
        "meta_inclination": 74.0883,
        "meta_ra_of_asc_node": 359.7841,
        "meta_arg_of_pericenter": 62.5594,
        "meta_mean_anomaly": 55.3269,
        "meta_ephemeris_type": 0,
        "meta_classification_type": "U",
        "meta_norad_cat_id": 34050,
        "meta_element_set_no": 999,
        "meta_rev_at_epoch": 85515,
        "meta_bstar": 0.0005354004,
        "meta_mean_motion_dot": 8.71e-06,
        "meta_mean_motion_ddot": 0,
        "tle_line1": "1 34050U 93036JM  25352.72567288  .00000871  00000+0  53540-3 0  9990",
        "tle_line2": "2 34050  74.0883 359.7841 0214630  62.5594  55.3269 13.96193763855150"
      },
      "geometry": {
        "type": "Point",
        "coordinates": [
          174.83347622992608,
          12.767864295763355
        ]
      }
    },
    {
      "type": "Feature",
      "properties": {
        "norad_id": 34053,
        "name": "COSMOS 2251 DEB",
        "group": "cosmos-2251-debris",
        "lat": 73.45628359901654,
        "lon": -51.256895141482886,
        "alt_km": 936.8797623800165,
        "timestamp": "2025-12-19T10:50:01.595265+00:00",
        "meta_object_name": "COSMOS 2251 DEB",
        "meta_object_id": "1993-036JQ",
        "meta_epoch": "2025-12-18T18:25:16.067712",
        "meta_mean_motion": 13.49170558,
        "meta_eccentricity": 0.04225705,
        "meta_inclination": 73.8436,
        "meta_ra_of_asc_node": 232.4581,
        "meta_arg_of_pericenter": 20.0164,
        "meta_mean_anomaly": 341.6966,
        "meta_ephemeris_type": 0,
        "meta_classification_type": "U",
        "meta_norad_cat_id": 34053,
        "meta_element_set_no": 999,
        "meta_rev_at_epoch": 82765,
        "meta_bstar": 0.00056527452,
        "meta_mean_motion_dot": 5.95e-06,
        "meta_mean_motion_ddot": 0,
        "tle_line1": "1 34053U 93036JQ  25352.76754708  .00000595  00000+0  56527-3 0  9993",
        "tle_line2": "2 34053  73.8436 232.4581 0422570  20.0164 341.6966 13.49170558827652"
      },
      "geometry": {
        "type": "Point",
        "coordinates": [
          -51.256895141482886,
          73.45628359901654
        ]
      }
    }
  ]
}